GSAT0101 (PRN E11)      
1 37846U 11060A   20124.95831153 -.00000078  00000-0  00000+0 0  9995
2 37846  56.6013  42.5064 0004411 350.2874   9.6989  1.70475336 53141
GSAT0102 (PRN E12)      
1 37847U 11060B   20126.18237413 -.00000083  00000-0  00000+0 0  9998
2 37847  56.6026  42.4719 0005356 328.6025 108.6878  1.70475419 53169
GSAT0103 (PRN E19)      
1 38857U 12055A   20124.41397096  .00000069  00000-0  00000-0 0  9997
2 38857  54.9694 163.0201 0004925 267.0520  92.9759  1.70473687 47044
GSAT0104 (PRN E20)      
1 38858U 12055B   20126.10808125  .00000073  00000-0  00000+0 0  9990
2 38858  54.9703 162.9728 0003841 272.9873  87.0573  1.70473634 47029
GSAT0201 (PRN E18)      
1 40128U 14050A   20125.74129390 -.00000093  00000-0  00000-0 0  9993
2 40128  50.5742   3.1158 1664857  97.8732 281.2763  1.85518613 36894
GSAT0202 (PRN E14)      
1 40129U 14050B   20124.92718350 -.00000088  00000-0  00000+0 0  9996
2 40129  50.6125   2.1832 1662946  98.6703 280.4523  1.85519287 38988
GSAT0203 (PRN E26)      
1 40544U 15017A   20125.32549531 -.00000080  00000-0  00000-0 0  9992
2 40544  56.3943  42.6363 0003415 282.4788  77.4775  1.70474382 31103
GSAT0204 (PRN E22)      
1 40545U 15017B   20125.69345068 -.00000082  00000-0  00000-0 0  9994
2 40545  56.4011  42.6418 0000845 278.0071  81.9777  1.70474880 31770
GSAT0205 (PRN E24)      
1 40889U 15045A   20125.34999341 -.00000024  00000-0  00000+0 0  9992
2 40889  56.1889 283.3121 0004161  31.4784 328.5076  1.70475187 28918
GSAT0206 (PRN E30)      
1 40890U 15045B   20125.56957625 -.00000026  00000-0  00000-0 0  9990
2 40890  56.1876 283.3027 0002413  35.2259 324.7498  1.70475274 28944
GSAT0209 (PRN E09)      
1 41174U 15079A   20124.56867995  .00000070  00000-0  00000+0 0  9999
2 41174  54.9839 162.7132 0005838 301.5624  58.4653  1.70473632 27243
GSAT0208 (PRN E08)      
1 41175U 15079B   20125.96160881  .00000073  00000-0  00000+0 0  9998
2 41175  54.9825 162.6743 0005061 300.8078  59.2306  1.70473723 27277
GSAT0211 (PRN E02)      
1 41549U 16030A   20124.91057747 -.00000020  00000-0  00000-0 0  9995
2 41549  56.3304 283.1726 0002196 341.0547  18.9009  1.70474932 24568
GSAT0210 (PRN E01)      
1 41550U 16030B   20125.20353754 -.00000022  00000-0  00000-0 0  9999
2 41550  56.3299 283.1663 0001080 282.0865  77.8634  1.70475099 24564
GSAT0207 (PRN E07)      
1 41859U 16069A   20124.27503735  .00000068  00000-0  00000+0 0  9993
2 41859  54.6424 163.0952 0005809 290.8755  69.1461  1.70473555 21511
GSAT0212 (PRN E03)      
1 41860U 16069B   20125.88823236  .00000072  00000-0  00000+0 0  9999
2 41860  54.6404 163.0494 0004644 306.5139  53.5317  1.70473556 21562
GSAT0213 (PRN E04)      
1 41861U 16069C   20121.56143390  .00000060  00000-0  00000+0 0  9994
2 41861  54.6423 163.1734 0005025 273.4792  86.5397  1.70473681 21498
GSAT0214 (PRN E05)      
1 41862U 16069D   20125.81451243  .00000072  00000-0  00000+0 0  9999
2 41862  54.6410 163.0506 0004314 278.2866  81.7527  1.70473649 21559
GSAT0215 (PRN E21)      
1 43055U 17079A   20125.13110973 -.00000022  00000-0  00000-0 0  9991
2 43055  56.3043 283.0112 0000472 256.4306 103.5265  1.70474162 14881
GSAT0216 (PRN E25)      
1 43056U 17079B   20124.83731787 -.00000019  00000-0  00000+0 0  9995
2 43056  56.3056 283.0188 0002359 270.2866  89.6504  1.70474295 14865
GSAT0217 (PRN E27)      
1 43057U 17079C   20122.12445622  .00000000  00000-0  00000+0 0  9995
2 43057  56.3054 283.0939 0001928 297.7098  62.2461  1.70474223 14837
GSAT0218 (PRN E31)      
1 43058U 17079D   20123.51759459 -.00000008  00000-0  00000+0 0  9995
2 43058  56.3053 283.0530 0002780 264.5374  95.4023  1.70474246 14859
GSAT0221 (PRN E15)      
1 43564U 18060A   20125.17721600 -.00000079  00000-0  00000-0 0  9998
2 43564  56.7824  42.2560 0004610 294.5600  65.3873  1.70475389 11066
GSAT0222 (PRN E33)      
1 43565U 18060B   20121.87756983 -.00000064  00000-0  00000-0 0  9998
2 43565  56.7827  42.3457 0004718 302.6504  57.3054  1.70475467 11057
GSAT0219 (PRN E36)      
1 43566U 18060C   20124.44413934 -.00000076  00000-0  00000-0 0  9994
2 43566  56.7844  42.2770 0004179 300.0971  59.8574  1.70475284 11078
GSAT0220 (PRN E13)      
1 43567U 18060D   20125.25059994 -.00000080  00000-0  00000-0 0  9992
2 43567  56.7848  42.2557 0004322 300.4080  59.5446  1.70475130 11076
